TIANMU-1 21             
1 58662U 23208C   26176.85174427  .00010547  00000+0  31062-3 0  9993
2 58662  97.4508 296.5589 0005665 285.5599  74.5019 15.35220216138893
TIANMU-1 22             
1 58663U 23208D   26176.83020122  .00008542  00000+0  28625-3 0  9997
2 58663  97.4503 293.1033 0002472 326.3924  33.7160 15.31169927138650
TIANMU-1 15             
1 58700U 24004A   26176.48630681  .00006049  00000+0  23132-3 0  9990
2 58700  97.4669   2.6785 0005858 324.9927  35.0926 15.26956768137048
TIANMU-1 16             
1 58701U 24004B   26176.80455543  .00006557  00000+0  25146-3 0  9990
2 58701  97.4615   2.2244 0004975 335.9723  24.1283 15.26829895137091
TIANMU-1 17             
1 58702U 24004C   26176.85555243  .00006640  00000+0  25463-3 0  9999
2 58702  97.4642   2.7636 0004656 343.2813  16.8271 15.26829621137092
TIANMU-1 18             
1 58703U 24004D   26176.83065135  .00004909  00000+0  18875-3 0  9999
2 58703  97.4660   2.9991 0003417 329.2234  30.8804 15.26878626137091
INSAT-3DS               
1 58990U 24033A   26176.68381347 -.00000145  00000+0  00000+0 0  9994
2 58990   0.0587 102.1091 0001440 341.2656 158.6947  1.00270803 47151
METEOR-M2 4             
1 59051U 24039A   26176.83550174  .00000008  00000+0  23345-4 0  9991
2 59051  98.7013 136.0249 0007757 137.6708 222.5069 14.22430381120493
GOES 19                 
1 60133U 24119A   26176.51008703 -.00000238  00000+0  00000+0 0  9998
2 60133   0.0443 168.6712 0000479 333.6942 239.7212  1.00271645  7040
MTG-S1                  
1 64723U 25143A   26175.74071355  .00000023  00000+0  00000+0 0  9993
2 64723   0.5970 340.6178 0000585 288.6722 269.7793  1.00400949  3493
METOP-SGA1              
1 65159U 25172A   26176.66671596  .00000036  00000+0  37301-4 0  9997
2 65159  98.6642 236.2142 0008161  28.8421 331.3205 14.19816367 44993
FENGYUN 3H              
1 65815U 25219A   26176.84933010  .00000037  00000+0  37744-4 0  9992
2 65815  98.6769 117.4501 0001524  71.0909 289.0432 14.19921827 38619
