OBJECT_NAME,OBJECT_ID,EPOCH,MEAN_MOTION,ECCENTRICITY,INCLINATION,RA_OF_ASC_NODE,ARG_OF_PERICENTER,MEAN_ANOMALY,EPHEMERIS_TYPE,CLASSIFICATION_TYPE,NORAD_CAT_ID,ELEMENT_SET_NO,REV_AT_EPOCH,BSTAR,MEAN_MOTION_DOT,MEAN_MOTION_DDOT
TIANMU-1 21,2023-208C,2026-06-25T20:26:30.704928,15.35220216,.0005665,97.4508,296.5589,285.5599,74.5019,0,U,58662,999,13889,.31062E-3,.10547E-3,0
TIANMU-1 22,2023-208D,2026-06-25T19:55:29.385408,15.31169927,.0002472,97.4503,293.1033,326.3924,33.7160,0,U,58663,999,13865,.28625E-3,.8542E-4,0
TIANMU-1 15,2024-004A,2026-06-25T11:40:16.908384,15.26956768,.0005858,97.4669,2.6785,324.9927,35.0926,0,U,58700,999,13704,.23132E-3,.6049E-4,0
TIANMU-1 16,2024-004B,2026-06-25T19:18:33.589152,15.26829895,.0004975,97.4615,2.2244,335.9723,24.1283,0,U,58701,999,13709,.25146E-3,.6557E-4,0
TIANMU-1 17,2024-004C,2026-06-25T20:31:59.729952,15.26829621,.0004656,97.4642,2.7636,343.2813,16.8271,0,U,58702,999,13709,.25463E-3,.664E-4,0
TIANMU-1 18,2024-004D,2026-06-25T19:56:08.276640,15.26878626,.0003417,97.4660,2.9991,329.2234,30.8804,0,U,58703,999,13709,.18875E-3,.4909E-4,0
INSAT-3DS,2024-033A,2026-06-25T16:24:41.483808,1.00270803,.000144,0.0587,102.1091,341.2656,158.6947,0,U,58990,999,4715,0,-.145E-5,0
METEOR-M2 4,2024-039A,2026-06-25T20:03:07.350336,14.22430381,.0007757,98.7013,136.0249,137.6708,222.5069,0,U,59051,999,12049,.23345E-4,.8E-7,0
GOES 19,2024-119A,2026-06-25T12:14:31.519392,1.00271645,.0000479,0.0443,168.6712,333.6942,239.7212,0,U,60133,999,704,0,-.238E-5,0
MTG-S1,2025-143A,2026-06-24T17:46:37.650720,1.00400949,.00005853,0.5970,340.6178,288.6722,269.7793,0,U,64723,999,349,0,.23E-6,0
METOP-SGA1,2025-172A,2026-06-25T16:00:04.258944,14.19816367,.0008161,98.6642,236.2142,28.8421,331.3205,0,U,65159,999,4499,.37301E-4,.36E-6,0
FENGYUN 3H,2025-219A,2026-06-25T20:23:02.120640,14.19921827,.0001524,98.6769,117.4501,71.0909,289.0432,0,U,65815,999,3861,.37744E-4,.37E-6,0
